[{"OBJECT_NAME":"TIANMU-1 19","OBJECT_ID":"2023-208A","EPOCH":"2026-03-09T22:13:36.801696","MEAN_MOTION":15.2984143,"ECCENTRICITY":0.00039292,"INCLINATION":97.4383,"RA_OF_ASC_NODE":184.9132,"ARG_OF_PERICENTER":316.2611,"MEAN_ANOMALY":43.8317,"EPHEMERIS_TYPE":0,"CLASSIFICATION_TYPE":"U","NORAD_CAT_ID":58660,"ELEMENT_SET_NO":999,"REV_AT_EPOCH":12214,"BSTAR":0.00040995676,"MEAN_MOTION_DOT":0.00011779,"MEAN_MOTION_DDOT":0},{"OBJECT_NAME":"STARLINK-32543","OBJECT_ID":"2025-063B","EPOCH":"2026-03-09T07:43:30.562464","MEAN_MOTION":15.3021256,"ECCENTRICITY":0.00014454,"INCLINATION":53.1595,"RA_OF_ASC_NODE":51.307,"ARG_OF_PERICENTER":92.2104,"MEAN_ANOMALY":267.9062,"EPHEMERIS_TYPE":0,"CLASSIFICATION_TYPE":"U","NORAD_CAT_ID":63364,"ELEMENT_SET_NO":999,"REV_AT_EPOCH":5473,"BSTAR":0.00079632037,"MEAN_MOTION_DOT":0.00023309,"MEAN_MOTION_DDOT":0}]
